[{"OBJECT_NAME":"HAWK-11B","OBJECT_ID":"2024-247C","EPOCH":"2026-03-09T10:44:06.809856","MEAN_MOTION":15.2884707,"ECCENTRICITY":0.00046902,"INCLINATION":45.0161,"RA_OF_ASC_NODE":115.761,"ARG_OF_PERICENTER":333.0326,"MEAN_ANOMALY":27.0314,"EPHEMERIS_TYPE":0,"CLASSIFICATION_TYPE":"U","NORAD_CAT_ID":62379,"ELEMENT_SET_NO":999,"REV_AT_EPOCH":6773,"BSTAR":0.00032841927,"MEAN_MOTION_DOT":9.093e-5,"MEAN_MOTION_DDOT":0},{"OBJECT_NAME":"STARLINK-35900","OBJECT_ID":"2025-283J","EPOCH":"2026-03-09T04:12:37.717920","MEAN_MOTION":15.30183452,"ECCENTRICITY":0.00012197,"INCLINATION":53.1612,"RA_OF_ASC_NODE":26.6843,"ARG_OF_PERICENTER":73.9111,"MEAN_ANOMALY":286.2024,"EPHEMERIS_TYPE":0,"CLASSIFICATION_TYPE":"U","NORAD_CAT_ID":66886,"ELEMENT_SET_NO":999,"REV_AT_EPOCH":1576,"BSTAR":0.0010055323,"MEAN_MOTION_DOT":0.00029525,"MEAN_MOTION_DDOT":0}]
